start=new Date('2021-12-07T00:00:00.000Z').valueOf();
sats=[{"ARG_OF_PERICENTER":"58.7807","DECAY_DATE":null,"PERIAPSIS":"546.011","CLASSIFICATION_TYPE":"U","TIME_SYSTEM":"UTC","PERIOD":"95.593","GP_ID":"191205886","RCS_SIZE":"LARGE","APOAPSIS":"548.456","SITE":"AFETR","OBJECT_ID":"2021-027AQ","TLE_LINE1":"1 48130U 21027AQ  21340.41435835  .00000400  00000-0  45741-4 0  9990","CENTER_NAME":"EARTH","EPOCH":"2021-12-06T09:56:40.561440","FILE":"3234035","RA_OF_ASC_NODE":"314.0367","MEAN_MOTION_DDOT":"0.0000000000000","REV_AT_EPOCH":"3808","MEAN_ANOMALY":"301.3355","BSTAR":"0.00004574100000","REF_FRAME":"TEME","SEMIMAJOR_AXIS":"6925.368","TLE_LINE2":"2 48130  53.0549 314.0367 0001765  58.7807 301.3355 15.06393597 38089","MEAN_MOTION":"15.06393597","MEAN_ELEMENT_THEORY":"SGP4","ECCENTRICITY":"0.00017650","LAUNCH_DATE":"2021-04-07","OBJECT_TYPE":"PAYLOAD","COUNTRY_CODE":"US","INCLINATION":"53.0549","EPHEMERIS_TYPE":"0","ELEMENT_SET_NO":"999","OBJECT_NAME":"STARLINK-2472","MEAN_MOTION_DOT":"0.00000400","NORAD_CAT_ID":"48130"},{"NORAD_CAT_ID":"48131","OBJECT_NAME":"STARLINK-2473","MEAN_MOTION_DOT":"0.00000235","ELEMENT_SET_NO":"999","EPHEMERIS_TYPE":"0","INCLINATION":"53.0538","COUNTRY_CODE":"US","LAUNCH_DATE":"2021-04-07","OBJECT_TYPE":"PAYLOAD","ECCENTRICITY":"0.00021390","MEAN_MOTION":"15.06387980","TLE_LINE2":"2 48131  53.0538 288.3561 0002139  53.0806 307.0379 15.06387980 38459","MEAN_ELEMENT_THEORY":"SGP4","BSTAR":"0.00003471900000","REF_FRAME":"TEME","SEMIMAJOR_AXIS":"6925.385","MEAN_ANOMALY":"307.0379","MEAN_MOTION_DDOT":"0.0000000000000","REV_AT_EPOCH":"3845","RA_OF_ASC_NODE":"288.3561","EPOCH":"2021-12-06T13:36:19.656288","FILE":"3234035","CENTER_NAME":"EARTH","SITE":"AFETR","OBJECT_ID":"2021-027AR","TLE_LINE1":"1 48131U 21027AR  21340.56689417  .00000235  00000-0  34719-4 0  9993","RCS_SIZE":"LARGE","GP_ID":"191206139","APOAPSIS":"548.732","PERIOD":"95.593","CLASSIFICATION_TYPE":"U","TIME_SYSTEM":"UTC","PERIAPSIS":"545.769","DECAY_DATE":null,"ARG_OF_PERICENTER":"53.0806"},{"RA_OF_ASC_NODE":"309.9308","EPOCH":"2021-12-06T05:09:25.252704","FILE":"3234035","CENTER_NAME":"EARTH","OBJECT_ID":"2021-027AS","SITE":"AFETR","TLE_LINE1":"1 48132U 21027AS  21340.21487561 -.00000305  00000-0 -15536-5 0  9999","GP_ID":"191206881","RCS_SIZE":"LARGE","APOAPSIS":"548.486","PERIOD":"95.592","CLASSIFICATION_TYPE":"U","TIME_SYSTEM":"UTC","PERIAPSIS":"545.915","DECAY_DATE":null,"ARG_OF_PERICENTER":"51.2251","NORAD_CAT_ID":"48132","OBJECT_NAME":"STARLINK-2474","MEAN_MOTION_DOT":"-0.00000305","ELEMENT_SET_NO":"999","EPHEMERIS_TYPE":"0","INCLINATION":"53.0570","COUNTRY_CODE":"US","LAUNCH_DATE":"2021-04-07","OBJECT_TYPE":"PAYLOAD","ECCENTRICITY":"0.00018560","TLE_LINE2":"2 48132  53.0570 309.9308 0001856  51.2251 308.8904 15.06404268 38119","MEAN_MOTION":"15.06404268","MEAN_ELEMENT_THEORY":"SGP4","REF_FRAME":"TEME","BSTAR":"-0.00000155360000","SEMIMAJOR_AXIS":"6925.335","MEAN_ANOMALY":"308.8904","REV_AT_EPOCH":"3811","MEAN_MOTION_DDOT":"0.0000000000000"},{"ARG_OF_PERICENTER":"62.9204","DECAY_DATE":null,"PERIAPSIS":"545.928","CLASSIFICATION_TYPE":"U","TIME_SYSTEM":"UTC","PERIOD":"95.592","RCS_SIZE":"LARGE","GP_ID":"191234238","APOAPSIS":"548.523","OBJECT_ID":"2021-027AT","SITE":"AFETR","TLE_LINE1":"1 48133U 21027AT  21340.94100765  .00001783  00000-0  13858-3 0  9990","CENTER_NAME":"EARTH","EPOCH":"2021-12-06T22:35:03.060960","FILE":"3234296","RA_OF_ASC_NODE":"306.6707","MEAN_MOTION_DDOT":"0.0000000000000","REV_AT_EPOCH":"3823","MEAN_ANOMALY":"297.1976","BSTAR":"0.00013858000000","REF_FRAME":"TEME","SEMIMAJOR_AXIS":"6925.361","TLE_LINE2":"2 48133  53.0568 306.6707 0001874  62.9204 297.1976 15.06396100 38238","MEAN_MOTION":"15.06396100","MEAN_ELEMENT_THEORY":"SGP4","ECCENTRICITY":"0.00018740","LAUNCH_DATE":"2021-04-07","OBJECT_TYPE":"PAYLOAD","INCLINATION":"53.0568","COUNTRY_CODE":"US","EPHEMERIS_TYPE":"0","ELEMENT_SET_NO":"999","OBJECT_NAME":"STARLINK-2475","MEAN_MOTION_DOT":"0.00001783","NORAD_CAT_ID":"48133"},{"PERIAPSIS":"545.827","ARG_OF_PERICENTER":"55.1727","DECAY_DATE":null,"CLASSIFICATION_TYPE":"U","TIME_SYSTEM":"UTC","RCS_SIZE":"LARGE","GP_ID":"191205388","APOAPSIS":"548.615","PERIOD":"95.592","OBJECT_ID":"2021-027AU","SITE":"AFETR","TLE_LINE1":"1 48134U 21027AU  21340.19645225  .00001856  00000-0  14348-3 0  9999","EPOCH":"2021-12-06T04:42:53.474400","FILE":"3234035","CENTER_NAME":"EARTH","RA_OF_ASC_NODE":"310.0105","MEAN_ANOMALY":"304.9451","REV_AT_EPOCH":"3811","MEAN_MOTION_DDOT":"0.0000000000000","BSTAR":"0.00014348000000","REF_FRAME":"TEME","SEMIMAJOR_AXIS":"6925.356","MEAN_MOTION":"15.06397579","TLE_LINE2":"2 48134  53.0567 310.0105 0002013  55.1727 304.9451 15.06397579 38112","MEAN_ELEMENT_THEORY":"SGP4","ECCENTRICITY":"0.00020130","COUNTRY_CODE":"US","INCLINATION":"53.0567","LAUNCH_DATE":"2021-04-07","OBJECT_TYPE":"PAYLOAD","ELEMENT_SET_NO":"999","EPHEMERIS_TYPE":"0","OBJECT_NAME":"STARLINK-2476","MEAN_MOTION_DOT":"0.00001856","NORAD_CAT_ID":"48134"},{"EPHEMERIS_TYPE":"0","ELEMENT_SET_NO":"999","LAUNCH_DATE":"2021-04-07","OBJECT_TYPE":"PAYLOAD","INCLINATION":"53.0564","COUNTRY_CODE":"US","NORAD_CAT_ID":"48135","OBJECT_NAME":"STARLINK-2478","MEAN_MOTION_DOT":"0.00000040","BSTAR":"0.00002159200000","REF_FRAME":"TEME","SEMIMAJOR_AXIS":"6925.381","MEAN_MOTION_DDOT":"0.0000000000000","REV_AT_EPOCH":"3815","MEAN_ANOMALY":"306.4703","ECCENTRICITY":"0.00019950","MEAN_MOTION":"15.06389455","TLE_LINE2":"2 48135  53.0564 311.7977 0001995  53.6470 306.4703 15.06389455 38156","MEAN_ELEMENT_THEORY":"SGP4","SITE":"AFETR","OBJECT_ID":"2021-027AV","TLE_LINE1":"1 48135U 21027AV  21340.91196703  .00000040  00000-0  21592-4 0  9996","PERIOD":"95.593","RCS_SIZE":"LARGE","GP_ID":"191235240","APOAPSIS":"548.627","RA_OF_ASC_NODE":"311.7977","CENTER_NAME":"EARTH","EPOCH":"2021-12-06T21:53:13.951392","FILE":"3234296","ARG_OF_PERICENTER":"53.6470","DECAY_DATE":null,"PERIAPSIS":"545.864","CLASSIFICATION_TYPE":"U","TIME_SYSTEM":"UTC"},{"DECAY_DATE":null,"ARG_OF_PERICENTER":"62.3742","PERIAPSIS":"546.026","CLASSIFICATION_TYPE":"U","TIME_SYSTEM":"UTC","PERIOD":"95.593","RCS_SIZE":"LARGE","GP_ID":"191235991","APOAPSIS":"548.510","SITE":"AFETR","OBJECT_ID":"2021-027AW","TLE_LINE1":"1 48136U 21027AW  21340.88572191  .00001603  00000-0  12658-3 0  9990","CENTER_NAME":"EARTH","EPOCH":"2021-12-06T21:15:26.373024","FILE":"3234296","RA_OF_ASC_NODE":"306.9074","MEAN_MOTION_DDOT":"0.0000000000000","REV_AT_EPOCH":"3822","MEAN_ANOMALY":"297.7429","REF_FRAME":"TEME","BSTAR":"0.00012658000000","SEMIMAJOR_AXIS":"6925.403","MEAN_MOTION":"15.06382208","TLE_LINE2":"2 48136  53.0554 306.9074 0001793  62.3742 297.7429 15.06382208 38229","MEAN_ELEMENT_THEORY":"SGP4","ECCENTRICITY":"0.00017930","LAUNCH_DATE":"2021-04-07","OBJECT_TYPE":"PAYLOAD","COUNTRY_CODE":"US","INCLINATION":"53.0554","EPHEMERIS_TYPE":"0","ELEMENT_SET_NO":"999","OBJECT_NAME":"STARLINK-2479","MEAN_MOTION_DOT":"0.00001603","NORAD_CAT_ID":"48136"},{"CENTER_NAME":"EARTH","EPOCH":"2021-12-06T13:56:11.290272","FILE":"3234296","RA_OF_ASC_NODE":"288.2790","PERIOD":"95.592","RCS_SIZE":"LARGE","GP_ID":"191234739","APOAPSIS":"548.691","SITE":"AFETR","OBJECT_ID":"2021-027AX","TLE_LINE1":"1 48137U 21027AX  21340.58068623  .00001903  00000-0  14664-3 0  9990","CLASSIFICATION_TYPE":"U","TIME_SYSTEM":"UTC","ARG_OF_PERICENTER":"56.5909","DECAY_DATE":null,"PERIAPSIS":"545.755","OBJECT_NAME":"STARLINK-2480","MEAN_MOTION_DOT":"0.00001903","NORAD_CAT_ID":"48137","LAUNCH_DATE":"2021-04-07","OBJECT_TYPE":"PAYLOAD","INCLINATION":"53.0533","COUNTRY_CODE":"US","EPHEMERIS_TYPE":"0","ELEMENT_SET_NO":"999","MEAN_MOTION":"15.06396884","TLE_LINE2":"2 48137  53.0533 288.2790 0002120  56.5909 303.5283 15.06396884 38453","MEAN_ELEMENT_THEORY":"SGP4","ECCENTRICITY":"0.00021200","MEAN_MOTION_DDOT":"0.0000000000000","REV_AT_EPOCH":"3845","MEAN_ANOMALY":"303.5283","BSTAR":"0.00014664000000","REF_FRAME":"TEME","SEMIMAJOR_AXIS":"6925.358"},{"NORAD_CAT_ID":"48138","MEAN_MOTION_DOT":"0.00002151","OBJECT_NAME":"STARLINK-2481","ELEMENT_SET_NO":"999","EPHEMERIS_TYPE":"0","INCLINATION":"53.0563","COUNTRY_CODE":"US","OBJECT_TYPE":"PAYLOAD","LAUNCH_DATE":"2021-04-07","ECCENTRICITY":"0.00023110","MEAN_ELEMENT_THEORY":"SGP4","TLE_LINE2":"2 48138  53.0563 306.6905 0002311  52.1183 308.0015 15.06412346 38239","MEAN_MOTION":"15.06412346","SEMIMAJOR_AXIS":"6925.311","BSTAR":"0.00016323000000","REF_FRAME":"TEME","MEAN_ANOMALY":"308.0015","MEAN_MOTION_DDOT":"0.0000000000000","REV_AT_EPOCH":"3823","RA_OF_ASC_NODE":"306.6905","FILE":"3234296","EPOCH":"2021-12-06T22:29:45.272256","CENTER_NAME":"EARTH","TLE_LINE1":"1 48138U 21027AY  21340.93732954  .00002151  00000-0  16323-3 0  9995","OBJECT_ID":"2021-027AY","SITE":"AFETR","APOAPSIS":"548.776","RCS_SIZE":"LARGE","GP_ID":"191234489","PERIOD":"95.591","TIME_SYSTEM":"UTC","CLASSIFICATION_TYPE":"U","PERIAPSIS":"545.575","DECAY_DATE":null,"ARG_OF_PERICENTER":"52.1183"},{"RA_OF_ASC_NODE":"288.2057","CENTER_NAME":"EARTH","EPOCH":"2021-12-06T14:18:46.655712","FILE":"3234296","OBJECT_ID":"2021-027AZ","SITE":"AFETR","TLE_LINE1":"1 48139U 21027AZ  21340.59637333  .00000396  00000-0  45486-4 0  9995","PERIOD":"95.592","GP_ID":"191235741","RCS_SIZE":"LARGE","APOAPSIS":"548.573","CLASSIFICATION_TYPE":"U","TIME_SYSTEM":"UTC","ARG_OF_PERICENTER":"52.5062","DECAY_DATE":null,"PERIAPSIS":"545.877","NORAD_CAT_ID":"48139","OBJECT_NAME":"STARLINK-2482","MEAN_MOTION_DOT":"0.00000396","EPHEMERIS_TYPE":"0","ELEMENT_SET_NO":"999","LAUNCH_DATE":"2021-04-07","OBJECT_TYPE":"PAYLOAD","COUNTRY_CODE":"US","INCLINATION":"53.0555","ECCENTRICITY":"0.00019460","TLE_LINE2":"2 48139  53.0555 288.2057 0001946  52.5062 307.6104 15.06396298 38463","MEAN_MOTION":"15.06396298","MEAN_ELEMENT_THEORY":"SGP4","REF_FRAME":"TEME","BSTAR":"0.00004548600000","SEMIMAJOR_AXIS":"6925.360","REV_AT_EPOCH":"3846","MEAN_MOTION_DDOT":"0.0000000000000","MEAN_ANOMALY":"307.6104"}];
